STARLINK-36560          
1 67585U 26016AA  26055.25002315 -.00043793  00000+0 -29394-3 0  9999
2 67585  97.2844 115.1609 0001662  87.2925 258.8247 15.75213123  5830
NAVSTAR 85 (USA 581)    
1 67588U 26017A   26054.02377539  .00000001  00000+0  00000+0 0  9992
2 67588  55.0119  93.3358 0001141  31.5498 328.5234  2.00560997429320
STARLINK-36641          
1 67589U 26018A   26055.15270519  .00168999  00000+0  11085-2 0  9998
2 67589  97.2839 120.2439 0001508 107.0550 253.0880 15.75255216  5176
STARLINK-36376          
1 67590U 26018B   26055.13470874  .00150546  00000+0  99040-3 0  9991
2 67590  97.2849 120.2694 0001567 110.8470 249.2964 15.75238855  5170
STARLINK-36391          
1 67591U 26018C   26055.17449448  .00161658  00000+0  82655-3 0  9999
2 67591  97.2857 120.3688 0001630  96.6748 263.4706 15.80884752  5186
STARLINK-36603          
1 67592U 26018D   26055.13047437  .00178881  00000+0  11714-2 0  9991
2 67592  97.2845 120.2754 0001319  97.7789 262.3626 15.75264837  5176
STARLINK-36634          
1 67593U 26018E   26055.12271060  .00163323  00000+0  10723-2 0  9996
2 67593  97.2855 120.2865 0001276  86.4652 273.6759 15.75249732  5176
STARLINK-36638          
1 67594U 26018F   26055.29809103  .00248638  00000+0  12567-2 0  9991
2 67594  97.2852 120.5076 0000961  65.4907 294.6461 15.80910299  5207
STARLINK-36628          
1 67595U 26018G   26055.14035649  .00196868  00000+0  12894-2 0  9992
2 67595  97.2820 120.2606 0000988  77.0182 283.1193 15.75210909  5178
STARLINK-36629          
1 67596U 26018H   26055.14812403  .00234716  00000+0  15284-2 0  9995
2 67596  97.2840 120.2496 0001135 127.9773 232.1595 15.75238346  5179
STARLINK-36384          
1 67597U 26018J   26055.25002315 -.00156611  00000+0 -10650-2 0  9992
2 67597  97.2853 120.4547 0001441  75.9551   7.6102 15.75264820  5242
STARLINK-36358          
1 67598U 26018K   26055.26917521  .00213300  00000+0  13912-2 0  9999
2 67598  97.2839 120.3909 0001133  92.3275 267.8120 15.75261245  5194
