CCSDS_OMM_VERS = 2.0
CREATION_DATE  = 
ORIGINATOR     = 

OBJECT_NAME    = STARLINK-36560
OBJECT_ID      = 2026-016AA
CENTER_NAME    = EARTH
REF_FRAME      = TEME
TIME_SYSTEM    = UTC
MEAN_ELEMENT_THEORY = SGP/SGP4

EPOCH          = 2026-02-24T06:00:02.000160
MEAN_MOTION    = 15.75213123
ECCENTRICITY   = .00016623
INCLINATION    = 97.2844
RA_OF_ASC_NODE = 115.1609
ARG_OF_PERICENTER = 87.2925
MEAN_ANOMALY   = 258.8247

EPHEMERIS_TYPE = 0
CLASSIFICATION_TYPE = U
NORAD_CAT_ID   = 67585
ELEMENT_SET_NO = 999
REV_AT_EPOCH   = 583
BSTAR          = -.29393678E-3
MEAN_MOTION_DOT = -.43793E-3
MEAN_MOTION_DDOT = 0

CCSDS_OMM_VERS = 2.0
CREATION_DATE  = 
ORIGINATOR     = 

OBJECT_NAME    = NAVSTAR 85 (USA 581)
OBJECT_ID      = 2026-017A
CENTER_NAME    = EARTH
REF_FRAME      = TEME
TIME_SYSTEM    = UTC
MEAN_ELEMENT_THEORY = SGP/SGP4

EPOCH          = 2026-02-23T00:34:14.193696
MEAN_MOTION    = 2.00560997
ECCENTRICITY   = .00011415
INCLINATION    = 55.0119
RA_OF_ASC_NODE = 93.3358
ARG_OF_PERICENTER = 31.5498
MEAN_ANOMALY   = 328.5234

EPHEMERIS_TYPE = 0
CLASSIFICATION_TYPE = U
NORAD_CAT_ID   = 67588
ELEMENT_SET_NO = 999
REV_AT_EPOCH   = 42932
BSTAR          = 0
MEAN_MOTION_DOT = .1E-7
MEAN_MOTION_DDOT = 0

CCSDS_OMM_VERS = 2.0
CREATION_DATE  = 
ORIGINATOR     = 

OBJECT_NAME    = STARLINK-36641
OBJECT_ID      = 2026-018A
CENTER_NAME    = EARTH
REF_FRAME      = TEME
TIME_SYSTEM    = UTC
MEAN_ELEMENT_THEORY = SGP/SGP4

EPOCH          = 2026-02-24T03:39:53.728416
MEAN_MOTION    = 15.75255216
ECCENTRICITY   = .00015088
INCLINATION    = 97.2839
RA_OF_ASC_NODE = 120.2439
ARG_OF_PERICENTER = 107.0550
MEAN_ANOMALY   = 253.0880

EPHEMERIS_TYPE = 0
CLASSIFICATION_TYPE = U
NORAD_CAT_ID   = 67589
ELEMENT_SET_NO = 999
REV_AT_EPOCH   = 517
BSTAR          = .11085041E-2
MEAN_MOTION_DOT = .168999E-2
MEAN_MOTION_DDOT = 0

CCSDS_OMM_VERS = 2.0
CREATION_DATE  = 
ORIGINATOR     = 

OBJECT_NAME    = STARLINK-36376
OBJECT_ID      = 2026-018B
CENTER_NAME    = EARTH
REF_FRAME      = TEME
TIME_SYSTEM    = UTC
MEAN_ELEMENT_THEORY = SGP/SGP4

EPOCH          = 2026-02-24T03:13:58.835136
MEAN_MOTION    = 15.75238855
ECCENTRICITY   = .00015672
INCLINATION    = 97.2849
RA_OF_ASC_NODE = 120.2694
ARG_OF_PERICENTER = 110.8470
MEAN_ANOMALY   = 249.2964

EPHEMERIS_TYPE = 0
CLASSIFICATION_TYPE = U
NORAD_CAT_ID   = 67590
ELEMENT_SET_NO = 999
REV_AT_EPOCH   = 517
BSTAR          = .99040439E-3
MEAN_MOTION_DOT = .150546E-2
MEAN_MOTION_DDOT = 0

CCSDS_OMM_VERS = 2.0
CREATION_DATE  = 
ORIGINATOR     = 

OBJECT_NAME    = STARLINK-36391
OBJECT_ID      = 2026-018C
CENTER_NAME    = EARTH
REF_FRAME      = TEME
TIME_SYSTEM    = UTC
MEAN_ELEMENT_THEORY = SGP/SGP4

EPOCH          = 2026-02-24T04:11:16.323072
MEAN_MOTION    = 15.80884752
ECCENTRICITY   = .00016308
INCLINATION    = 97.2857
RA_OF_ASC_NODE = 120.3688
ARG_OF_PERICENTER = 96.6748
MEAN_ANOMALY   = 263.4706

EPHEMERIS_TYPE = 0
CLASSIFICATION_TYPE = U
NORAD_CAT_ID   = 67591
ELEMENT_SET_NO = 999
REV_AT_EPOCH   = 518
BSTAR          = .82655489E-3
MEAN_MOTION_DOT = .161658E-2
MEAN_MOTION_DDOT = 0

CCSDS_OMM_VERS = 2.0
CREATION_DATE  = 
ORIGINATOR     = 

OBJECT_NAME    = STARLINK-36603
OBJECT_ID      = 2026-018D
CENTER_NAME    = EARTH
REF_FRAME      = TEME
TIME_SYSTEM    = UTC
MEAN_ELEMENT_THEORY = SGP/SGP4

EPOCH          = 2026-02-24T03:07:52.985568
MEAN_MOTION    = 15.75264837
ECCENTRICITY   = .00013192
INCLINATION    = 97.2845
RA_OF_ASC_NODE = 120.2754
ARG_OF_PERICENTER = 97.7789
MEAN_ANOMALY   = 262.3626

EPHEMERIS_TYPE = 0
CLASSIFICATION_TYPE = U
NORAD_CAT_ID   = 67592
ELEMENT_SET_NO = 999
REV_AT_EPOCH   = 517
BSTAR          = .11714199E-2
MEAN_MOTION_DOT = .178881E-2
MEAN_MOTION_DDOT = 0

CCSDS_OMM_VERS = 2.0
CREATION_DATE  = 
ORIGINATOR     = 

OBJECT_NAME    = STARLINK-36634
OBJECT_ID      = 2026-018E
CENTER_NAME    = EARTH
REF_FRAME      = TEME
TIME_SYSTEM    = UTC
MEAN_ELEMENT_THEORY = SGP/SGP4

EPOCH          = 2026-02-24T02:56:42.195840
MEAN_MOTION    = 15.75249732
ECCENTRICITY   = .0001276
INCLINATION    = 97.2855
RA_OF_ASC_NODE = 120.2865
ARG_OF_PERICENTER = 86.4652
MEAN_ANOMALY   = 273.6759

EPHEMERIS_TYPE = 0
CLASSIFICATION_TYPE = U
NORAD_CAT_ID   = 67593
ELEMENT_SET_NO = 999
REV_AT_EPOCH   = 517
BSTAR          = .10722786E-2
MEAN_MOTION_DOT = .163323E-2
MEAN_MOTION_DDOT = 0

CCSDS_OMM_VERS = 2.0
CREATION_DATE  = 
ORIGINATOR     = 

OBJECT_NAME    = STARLINK-36638
OBJECT_ID      = 2026-018F
CENTER_NAME    = EARTH
REF_FRAME      = TEME
TIME_SYSTEM    = UTC
MEAN_ELEMENT_THEORY = SGP/SGP4

EPOCH          = 2026-02-24T07:09:15.064992
MEAN_MOTION    = 15.80910299
ECCENTRICITY   = .0000961
INCLINATION    = 97.2852
RA_OF_ASC_NODE = 120.5076
ARG_OF_PERICENTER = 65.4907
MEAN_ANOMALY   = 294.6461

EPHEMERIS_TYPE = 0
CLASSIFICATION_TYPE = U
NORAD_CAT_ID   = 67594
ELEMENT_SET_NO = 999
REV_AT_EPOCH   = 520
BSTAR          = .12567323E-2
MEAN_MOTION_DOT = .248638E-2
MEAN_MOTION_DDOT = 0

CCSDS_OMM_VERS = 2.0
CREATION_DATE  = 
ORIGINATOR     = 

OBJECT_NAME    = STARLINK-36628
OBJECT_ID      = 2026-018G
CENTER_NAME    = EARTH
REF_FRAME      = TEME
TIME_SYSTEM    = UTC
MEAN_ELEMENT_THEORY = SGP/SGP4

EPOCH          = 2026-02-24T03:22:06.800736
MEAN_MOTION    = 15.75210909
ECCENTRICITY   = .00009889
INCLINATION    = 97.2820
RA_OF_ASC_NODE = 120.2606
ARG_OF_PERICENTER = 77.0182
MEAN_ANOMALY   = 283.1193

EPHEMERIS_TYPE = 0
CLASSIFICATION_TYPE = U
NORAD_CAT_ID   = 67595
ELEMENT_SET_NO = 999
REV_AT_EPOCH   = 517
BSTAR          = .12893984E-2
MEAN_MOTION_DOT = .196868E-2
MEAN_MOTION_DDOT = 0

CCSDS_OMM_VERS = 2.0
CREATION_DATE  = 
ORIGINATOR     = 

OBJECT_NAME    = STARLINK-36629
OBJECT_ID      = 2026-018H
CENTER_NAME    = EARTH
REF_FRAME      = TEME
TIME_SYSTEM    = UTC
MEAN_ELEMENT_THEORY = SGP/SGP4

EPOCH          = 2026-02-24T03:33:17.916192
MEAN_MOTION    = 15.75238346
ECCENTRICITY   = .00011354
INCLINATION    = 97.2840
RA_OF_ASC_NODE = 120.2496
ARG_OF_PERICENTER = 127.9773
MEAN_ANOMALY   = 232.1595

EPHEMERIS_TYPE = 0
CLASSIFICATION_TYPE = U
NORAD_CAT_ID   = 67596
ELEMENT_SET_NO = 999
REV_AT_EPOCH   = 517
BSTAR          = .1528449E-2
MEAN_MOTION_DOT = .234716E-2
MEAN_MOTION_DDOT = 0

CCSDS_OMM_VERS = 2.0
CREATION_DATE  = 
ORIGINATOR     = 

OBJECT_NAME    = STARLINK-36384
OBJECT_ID      = 2026-018J
CENTER_NAME    = EARTH
REF_FRAME      = TEME
TIME_SYSTEM    = UTC
MEAN_ELEMENT_THEORY = SGP/SGP4

EPOCH          = 2026-02-24T06:00:02.000160
MEAN_MOTION    = 15.75264820
ECCENTRICITY   = .00014411
INCLINATION    = 97.2853
RA_OF_ASC_NODE = 120.4547
ARG_OF_PERICENTER = 75.9551
MEAN_ANOMALY   = 7.6102

EPHEMERIS_TYPE = 0
CLASSIFICATION_TYPE = U
NORAD_CAT_ID   = 67597
ELEMENT_SET_NO = 999
REV_AT_EPOCH   = 524
BSTAR          = -.10649609E-2
MEAN_MOTION_DOT = -.156611E-2
MEAN_MOTION_DDOT = 0

CCSDS_OMM_VERS = 2.0
CREATION_DATE  = 
ORIGINATOR     = 

OBJECT_NAME    = STARLINK-36358
OBJECT_ID      = 2026-018K
CENTER_NAME    = EARTH
REF_FRAME      = TEME
TIME_SYSTEM    = UTC
MEAN_ELEMENT_THEORY = SGP/SGP4

EPOCH          = 2026-02-24T06:27:36.738144
MEAN_MOTION    = 15.75261245
ECCENTRICITY   = .00011331
INCLINATION    = 97.2839
RA_OF_ASC_NODE = 120.3909
ARG_OF_PERICENTER = 92.3275
MEAN_ANOMALY   = 267.8120

EPHEMERIS_TYPE = 0
CLASSIFICATION_TYPE = U
NORAD_CAT_ID   = 67598
ELEMENT_SET_NO = 999
REV_AT_EPOCH   = 519
BSTAR          = .13912141E-2
MEAN_MOTION_DOT = .2133E-2
MEAN_MOTION_DDOT = 0

